[{"OBJECT_NAME":"STARLINK-31483","OBJECT_ID":"2024-064P","EPOCH":"2026-03-09T22:42:33.317280","MEAN_MOTION":15.27563004,"ECCENTRICITY":0.00013862,"INCLINATION":43.0055,"RA_OF_ASC_NODE":54.8401,"ARG_OF_PERICENTER":263.1784,"MEAN_ANOMALY":96.891,"EPHEMERIS_TYPE":0,"CLASSIFICATION_TYPE":"U","NORAD_CAT_ID":59411,"ELEMENT_SET_NO":999,"REV_AT_EPOCH":10926,"BSTAR":-9.6297293e-5,"MEAN_MOTION_DOT":-2.91e-5,"MEAN_MOTION_DDOT":0},{"OBJECT_NAME":"OBJECT C","OBJECT_ID":"2024-092C","EPOCH":"2026-03-09T23:10:26.961312","MEAN_MOTION":15.27308901,"ECCENTRICITY":0.00097974,"INCLINATION":97.6475,"RA_OF_ASC_NODE":197.1606,"ARG_OF_PERICENTER":169.1353,"MEAN_ANOMALY":191.0098,"EPHEMERIS_TYPE":0,"CLASSIFICATION_TYPE":"U","NORAD_CAT_ID":59775,"ELEMENT_SET_NO":999,"REV_AT_EPOCH":10042,"BSTAR":0.00057925748,"MEAN_MOTION_DOT":0.00015454,"MEAN_MOTION_DDOT":0}]
